start=new Date('2022-05-11T00:00:00.000Z').valueOf();
sats=[{"SITE":"AFETR","COUNTRY_CODE":"US","TIME_SYSTEM":"UTC","TLE_LINE2":"2 49763  53.2192 299.1829 0001921  51.4303 178.1081 15.08821699  3583","RCS_SIZE":"LARGE","PERIAPSIS":"538.472","MEAN_MOTION_DDOT":"0.0000000000000","APOAPSIS":"541.130","ELEMENT_SET_NO":"999","MEAN_ANOMALY":"178.1081","DECAY_DATE":null,"PERIOD":"95.439","NORAD_CAT_ID":"49763","TLE_LINE1":"1 49763U 21115AR  22130.75001157 -.00001566  00000-0 -80373-4 0  9998","SEMIMAJOR_AXIS":"6917.936","CENTER_NAME":"EARTH","OBJECT_TYPE":"PAYLOAD","MEAN_ELEMENT_THEORY":"SGP4","OBJECT_ID":"2021-115AR","CLASSIFICATION_TYPE":"U","MEAN_MOTION_DOT":"-0.00001566","REF_FRAME":"TEME","GP_ID":"203228800","FILE":"3439673","MEAN_MOTION":"15.08821699","EPOCH":"2022-05-10T18:00:00.999648","ARG_OF_PERICENTER":"51.4303","BSTAR":"-0.00008037300000","ECCENTRICITY":"0.00019210","LAUNCH_DATE":"2021-12-02","OBJECT_NAME":"STARLINK-3198","RA_OF_ASC_NODE":"299.1829","EPHEMERIS_TYPE":"0","REV_AT_EPOCH":"358","INCLINATION":"53.2192"},{"PERIAPSIS":"538.611","MEAN_MOTION_DDOT":"0.0000000000000","RCS_SIZE":"LARGE","TIME_SYSTEM":"UTC","TLE_LINE2":"2 49764  53.2176 299.2035 0001653  49.7144  79.8325 15.08836981  3589","COUNTRY_CODE":"US","SITE":"AFETR","DECAY_DATE":null,"TLE_LINE1":"1 49764U 21115AS  22130.75001157 -.00025688  00000-0 -16018-2 0  9993","SEMIMAJOR_AXIS":"6917.890","NORAD_CAT_ID":"49764","PERIOD":"95.438","MEAN_ANOMALY":"79.8325","ELEMENT_SET_NO":"999","APOAPSIS":"540.898","ARG_OF_PERICENTER":"49.7144","GP_ID":"203229050","REF_FRAME":"TEME","MEAN_MOTION":"15.08836981","EPOCH":"2022-05-10T18:00:00.999648","FILE":"3439673","CLASSIFICATION_TYPE":"U","MEAN_ELEMENT_THEORY":"SGP4","OBJECT_TYPE":"PAYLOAD","OBJECT_ID":"2021-115AS","MEAN_MOTION_DOT":"-0.00025688","CENTER_NAME":"EARTH","INCLINATION":"53.2176","LAUNCH_DATE":"2021-12-02","OBJECT_NAME":"STARLINK-3206","RA_OF_ASC_NODE":"299.2035","REV_AT_EPOCH":"358","EPHEMERIS_TYPE":"0","ECCENTRICITY":"0.00016530","BSTAR":"-0.00160180000000"},{"APOAPSIS":"540.957","ELEMENT_SET_NO":"999","MEAN_ANOMALY":"141.1048","NORAD_CAT_ID":"49765","PERIOD":"95.437","TLE_LINE1":"1 49765U 21115AT  22130.75001157 -.00047797  00000-0 -30037-2 0  9996","SEMIMAJOR_AXIS":"6917.831","DECAY_DATE":null,"SITE":"AFETR","COUNTRY_CODE":"US","TIME_SYSTEM":"UTC","TLE_LINE2":"2 49765  53.2182 299.1932 0001822  48.3752 141.1048 15.08856040  3583","RCS_SIZE":"LARGE","MEAN_MOTION_DDOT":"0.0000000000000","PERIAPSIS":"538.436","BSTAR":"-0.00300370000000","ECCENTRICITY":"0.00018220","EPHEMERIS_TYPE":"0","REV_AT_EPOCH":"358","LAUNCH_DATE":"2021-12-02","OBJECT_NAME":"STARLINK-3227","RA_OF_ASC_NODE":"299.1932","INCLINATION":"53.2182","CENTER_NAME":"EARTH","MEAN_MOTION_DOT":"-0.00047797","OBJECT_TYPE":"PAYLOAD","OBJECT_ID":"2021-115AT","MEAN_ELEMENT_THEORY":"SGP4","CLASSIFICATION_TYPE":"U","FILE":"3439673","EPOCH":"2022-05-10T18:00:00.999648","MEAN_MOTION":"15.08856040","REF_FRAME":"TEME","GP_ID":"203229802","ARG_OF_PERICENTER":"48.3752"},{"MEAN_ANOMALY":"317.9103","ELEMENT_SET_NO":"999","APOAPSIS":"541.079","SEMIMAJOR_AXIS":"6917.894","TLE_LINE1":"1 49766U 21115AU  22130.79611943  .00000787  00000-0  67571-4 0  9992","PERIOD":"95.438","NORAD_CAT_ID":"49766","DECAY_DATE":null,"TLE_LINE2":"2 49766  53.2206 298.9950 0001908  42.2036 317.9103 15.08835412 24499","TIME_SYSTEM":"UTC","COUNTRY_CODE":"US","SITE":"AFETR","PERIAPSIS":"538.439","MEAN_MOTION_DDOT":"0.0000000000000","RCS_SIZE":"LARGE","ECCENTRICITY":"0.00019080","BSTAR":"0.00006757100000","INCLINATION":"53.2206","REV_AT_EPOCH":"2449","EPHEMERIS_TYPE":"0","LAUNCH_DATE":"2021-12-02","RA_OF_ASC_NODE":"298.9950","OBJECT_NAME":"STARLINK-3190","MEAN_MOTION_DOT":"0.00000787","CLASSIFICATION_TYPE":"U","MEAN_ELEMENT_THEORY":"SGP4","OBJECT_TYPE":"PAYLOAD","OBJECT_ID":"2021-115AU","CENTER_NAME":"EARTH","ARG_OF_PERICENTER":"42.2036","MEAN_MOTION":"15.08835412","EPOCH":"2022-05-10T19:06:24.718752","FILE":"3439673","GP_ID":"203229552","REF_FRAME":"TEME"},{"DECAY_DATE":null,"SEMIMAJOR_AXIS":"6917.903","TLE_LINE1":"1 49767U 21115AV  22130.75001157 -.00011879  00000-0 -72964-3 0  9996","PERIOD":"95.438","NORAD_CAT_ID":"49767","MEAN_ANOMALY":"97.1263","APOAPSIS":"541.068","ELEMENT_SET_NO":"999","PERIAPSIS":"538.469","MEAN_MOTION_DDOT":"0.0000000000000","RCS_SIZE":"LARGE","TLE_LINE2":"2 49767  53.2193 299.2014 0001878  52.4024  97.1263 15.08832470  3588","TIME_SYSTEM":"UTC","COUNTRY_CODE":"US","SITE":"AFETR","INCLINATION":"53.2193","RA_OF_ASC_NODE":"299.2014","LAUNCH_DATE":"2021-12-02","OBJECT_NAME":"STARLINK-3192","REV_AT_EPOCH":"358","EPHEMERIS_TYPE":"0","ECCENTRICITY":"0.00018780","BSTAR":"-0.00072964000000","ARG_OF_PERICENTER":"52.4024","GP_ID":"203228301","REF_FRAME":"TEME","MEAN_MOTION":"15.08832470","EPOCH":"2022-05-10T18:00:00.999648","FILE":"3439673","CLASSIFICATION_TYPE":"U","OBJECT_ID":"2021-115AV","OBJECT_TYPE":"PAYLOAD","MEAN_ELEMENT_THEORY":"SGP4","MEAN_MOTION_DOT":"-0.00011879","CENTER_NAME":"EARTH"},{"CENTER_NAME":"EARTH","CLASSIFICATION_TYPE":"U","OBJECT_TYPE":"PAYLOAD","OBJECT_ID":"2021-115AW","MEAN_ELEMENT_THEORY":"SGP4","MEAN_MOTION_DOT":"-0.00007268","GP_ID":"203228551","REF_FRAME":"TEME","EPOCH":"2022-05-10T18:00:00.999648","MEAN_MOTION":"15.08832522","FILE":"3439673","ARG_OF_PERICENTER":"55.3470","BSTAR":"-0.00043908000000","ECCENTRICITY":"0.00018000","LAUNCH_DATE":"2021-12-02","RA_OF_ASC_NODE":"299.2061","OBJECT_NAME":"STARLINK-3196","REV_AT_EPOCH":"358","EPHEMERIS_TYPE":"0","INCLINATION":"53.2171","COUNTRY_CODE":"US","SITE":"AFETR","TIME_SYSTEM":"UTC","TLE_LINE2":"2 49768  53.2171 299.2061 0001800  55.3470  14.1763 15.08832522  3581","RCS_SIZE":"LARGE","MEAN_MOTION_DDOT":"0.0000000000000","PERIAPSIS":"538.523","ELEMENT_SET_NO":"999","APOAPSIS":"541.013","MEAN_ANOMALY":"14.1763","DECAY_DATE":null,"SEMIMAJOR_AXIS":"6917.903","TLE_LINE1":"1 49768U 21115AW  22130.75001157 -.00007268  00000-0 -43908-3 0  9990","PERIOD":"95.438","NORAD_CAT_ID":"49768"},{"MEAN_MOTION_DDOT":"0.0000000000000","PERIAPSIS":"538.427","RCS_SIZE":"LARGE","TIME_SYSTEM":"UTC","TLE_LINE2":"2 49769  53.2188 299.2048 0001914  38.1412  51.3827 15.08838295  3583","SITE":"AFETR","COUNTRY_CODE":"US","NORAD_CAT_ID":"49769","PERIOD":"95.438","SEMIMAJOR_AXIS":"6917.886","TLE_LINE1":"1 49769U 21115AX  22130.75001157 -.00030558  00000-0 -19101-2 0  9996","DECAY_DATE":null,"MEAN_ANOMALY":"51.3827","APOAPSIS":"541.075","ELEMENT_SET_NO":"999","ARG_OF_PERICENTER":"38.1412","FILE":"3439673","EPOCH":"2022-05-10T18:00:00.999648","MEAN_MOTION":"15.08838295","REF_FRAME":"TEME","GP_ID":"203229303","MEAN_MOTION_DOT":"-0.00030558","MEAN_ELEMENT_THEORY":"SGP4","OBJECT_TYPE":"PAYLOAD","OBJECT_ID":"2021-115AX","CLASSIFICATION_TYPE":"U","CENTER_NAME":"EARTH","INCLINATION":"53.2188","EPHEMERIS_TYPE":"0","REV_AT_EPOCH":"358","LAUNCH_DATE":"2021-12-02","OBJECT_NAME":"STARLINK-3208","RA_OF_ASC_NODE":"299.2048","ECCENTRICITY":"0.00019140","BSTAR":"-0.00191010000000"},{"DECAY_DATE":null,"SEMIMAJOR_AXIS":"6917.906","TLE_LINE1":"1 49770U 21115AY  22130.75001157 -.00007520  00000-0 -45496-3 0  9998","PERIOD":"95.438","NORAD_CAT_ID":"49770","MEAN_ANOMALY":"6.3220","ELEMENT_SET_NO":"999","APOAPSIS":"541.157","PERIAPSIS":"538.386","MEAN_MOTION_DDOT":"0.0000000000000","RCS_SIZE":"LARGE","TLE_LINE2":"2 49770  53.2172 299.2156 0002003  43.2206   6.3220 15.08831565  3586","TIME_SYSTEM":"UTC","COUNTRY_CODE":"US","SITE":"AFETR","INCLINATION":"53.2172","OBJECT_NAME":"STARLINK-3191","LAUNCH_DATE":"2021-12-02","RA_OF_ASC_NODE":"299.2156","REV_AT_EPOCH":"358","EPHEMERIS_TYPE":"0","ECCENTRICITY":"0.00020030","BSTAR":"-0.00045496000000","ARG_OF_PERICENTER":"43.2206","GP_ID":"203230052","REF_FRAME":"TEME","EPOCH":"2022-05-10T18:00:00.999648","MEAN_MOTION":"15.08831565","FILE":"3439673","CLASSIFICATION_TYPE":"U","MEAN_ELEMENT_THEORY":"SGP4","OBJECT_TYPE":"PAYLOAD","OBJECT_ID":"2021-115AY","MEAN_MOTION_DOT":"-0.00007520","CENTER_NAME":"EARTH"},{"CENTER_NAME":"EARTH","MEAN_MOTION_DOT":"-0.00053989","OBJECT_TYPE":"PAYLOAD","MEAN_ELEMENT_THEORY":"SGP4","OBJECT_ID":"2021-115AZ","CLASSIFICATION_TYPE":"U","FILE":"3439673","EPOCH":"2022-05-10T18:00:00.999648","MEAN_MOTION":"15.08851259","REF_FRAME":"TEME","GP_ID":"203228801","ARG_OF_PERICENTER":"44.9208","BSTAR":"-0.00339860000000","ECCENTRICITY":"0.00018090","EPHEMERIS_TYPE":"0","REV_AT_EPOCH":"358","LAUNCH_DATE":"2021-12-02","OBJECT_NAME":"STARLINK-3201","RA_OF_ASC_NODE":"299.2136","INCLINATION":"53.2155","SITE":"AFETR","COUNTRY_CODE":"US","TLE_LINE2":"2 49771  53.2155 299.2136 0001809  44.9208 344.6116 15.08851259  3583","TIME_SYSTEM":"UTC","RCS_SIZE":"LARGE","MEAN_MOTION_DDOT":"0.0000000000000","PERIAPSIS":"538.460","APOAPSIS":"540.962","ELEMENT_SET_NO":"999","MEAN_ANOMALY":"344.6116","PERIOD":"95.437","NORAD_CAT_ID":"49771","TLE_LINE1":"1 49771U 21115AZ  22130.75001157 -.00053989  00000-0 -33986-2 0  9999","SEMIMAJOR_AXIS":"6917.846","DECAY_DATE":null},{"MEAN_MOTION_DOT":"0.00036641","CLASSIFICATION_TYPE":"U","MEAN_ELEMENT_THEORY":"SGP4","OBJECT_TYPE":"PAYLOAD","OBJECT_ID":"2021-125A","CENTER_NAME":"EARTH","ARG_OF_PERICENTER":"42.8225","EPOCH":"2022-05-10T18:00:00.999648","MEAN_MOTION":"15.08813548","FILE":"3439673","GP_ID":"203228578","REF_FRAME":"TEME","ECCENTRICITY":"0.00020640","BSTAR":"0.00231000000000","INCLINATION":"53.2176","REV_AT_EPOCH":"358","EPHEMERIS_TYPE":"0","RA_OF_ASC_NODE":"49.1936","LAUNCH_DATE":"2021-12-18","OBJECT_NAME":"STARLINK-3317","TIME_SYSTEM":"UTC","TLE_LINE2":"2 50156  53.2176  49.1936 0002064  42.8225 256.5126 15.08813548  3586","COUNTRY_CODE":"US","SITE":"AFWTR","PERIAPSIS":"538.398","MEAN_MOTION_DDOT":"0.0000000000000","RCS_SIZE":"LARGE","MEAN_ANOMALY":"256.5126","ELEMENT_SET_NO":"999","APOAPSIS":"541.254","SEMIMAJOR_AXIS":"6917.961","TLE_LINE1":"1 50156U 21125A   22130.75001157  .00036641  00000-0  23100-2 0  9990","PERIOD":"95.439","NORAD_CAT_ID":"50156","DECAY_DATE":null}];
